[Satellite]
VERSION=1.1
NAME=SOMP
NICKNAME=SOMP
TLE1=1 39134U 13015E   19316.84172472  .00001504  00000-0  76755-4 0  9999
TLE2=2 39134  64.8630 263.5937 0037648 279.0023  80.6844 15.20490713362963
STATUS=0
